[{"OBJECT_NAME":"COSMOS 2506","OBJECT_ID":"2015-029A","EPOCH":"2026-03-09T23:04:50.378016","MEAN_MOTION":14.54348608,"ECCENTRICITY":0.00085368,"INCLINATION":98.0605,"RA_OF_ASC_NODE":113.48,"ARG_OF_PERICENTER":100.8275,"MEAN_ANOMALY":259.3883,"EPHEMERIS_TYPE":0,"CLASSIFICATION_TYPE":"U","NORAD_CAT_ID":40699,"ELEMENT_SET_NO":999,"REV_AT_EPOCH":56846,"BSTAR":2.4503149e-5,"MEAN_MOTION_DOT":6.1e-7,"MEAN_MOTION_DDOT":0},{"OBJECT_NAME":"CZ-4B DEB","OBJECT_ID":"1999-057MY","EPOCH":"2026-03-05T14:54:35.286336","MEAN_MOTION":14.53131114,"ECCENTRICITY":0.0079102,"INCLINATION":98.5072,"RA_OF_ASC_NODE":128.6079,"ARG_OF_PERICENTER":197.1875,"MEAN_ANOMALY":162.6639,"EPHEMERIS_TYPE":0,"CLASSIFICATION_TYPE":"U","NORAD_CAT_ID":28068,"ELEMENT_SET_NO":999,"REV_AT_EPOCH":66916,"BSTAR":0.00066026,"MEAN_MOTION_DOT":2.797e-5,"MEAN_MOTION_DDOT":0}]
